#aV2010 12 19  0  0   .00000000      96 DD+AD WGS84 FIT  NGA
## 1615       .00000000   900.00000000 55549  .0000000000000
+   32     1  2  3  4  5  6  7  8  9 10 11 12 13 14 15 16 17
+         18 19 20 21 22 23 24 25 26 27 28 29 30 31 32  0  0
+          0  0  0  0  0  0  0  0  0  0  0  0  0  0  0  0  0
+          0  0  0  0  0  0  0  0  0  0  0  0  0  0  0  0  0
+          0  0  0  0  0  0  0  0  0  0  0  0  0  0  0  0  0
++         0  0  0  0  0  0  0  0  0  0  0  0  0  0  0  0  0
++         0  0  0  0  0  0  0  0  0  0  0  0  0  0  0  0  0
++         0  0  0  0  0  0  0  0  0  0  0  0  0  0  0  0  0
++         0  0  0  0  0  0  0  0  0  0  0  0  0  0  0  0  0
++         0  0  0  0  0  0  0  0  0  0  0  0  0  0  0  0  0
%c cc cc ccc ccc cccc cccc cccc cccc ccccc ccccc ccccc ccccc
%c cc cc ccc ccc cccc cccc cccc cccc ccccc ccccc ccccc ccccc
%f  0.0000000  0.000000000  0.00000000000  0.000000000000000
%f  0.0000000  0.000000000  0.00000000000  0.000000000000000
%i    0    0    0    0      0      0      0      0         0
%i    0    0    0    0      0      0      0      0         0
/*      NGA, ST. LOUIS,MO.                                  
/*   EPHEMERIS COMPUTED FROM  3 DAYS OF DATA                
/* CCCCCCCCCCCCCCCCCCCCCCCCCCCCCCCCCCCCCCCCCCCCCCCCCCCCCCCCC
/* CCCCCCCCCCCCCCCCCCCCCCCCCCCCCCCCCCCCCCCCCCCCCCCCCCCCCCCCC
*  2010 12 19 18 45   .00000000                                                 
P  1  -9728.751148  13292.351178  20692.175659   -192.694594                    
V  1 -11503.621825 -23940.914085  10041.586635      -.033710                    
P  2  10047.735786 -13882.055992  20184.367405    309.627480                    
V  2  25565.947985   3848.186800 -10556.485455       .023160                    
P  3  -8437.590382  24355.185455  -6051.574251    650.841772                    
V  3  -6972.480334   4450.831935  29928.873848       .052756                    
P  4  20762.745609  -8278.285653  14406.917796    249.080033                    
V  4  18169.436996   4512.585718 -22909.328835       .098321                    
P  5    275.301882 -22863.446842  13410.515682    -85.445222                    
V  5   9093.026045  14687.486343  24923.003218      -.059573                    
P  6 -13379.732385  22738.364134  -1812.906098    387.528378                    
V  6  -4550.351917     12.559746  31183.846658      -.090470                    
P  7  25675.236754   5896.167778   4160.946351       .594914                    
V  7  -5464.443398   1580.412379  31319.563760       .004656                    
P  8  25804.713975     80.838288  -7392.474355      7.091722                    
V  8   8847.679971   2924.514993  30319.011060      -.000140                    
P  9 -11768.106556 -14211.663510 -19652.698632     49.853139                    
V  9  23723.151365   1214.239998 -15503.313377       .025000                    
P 10  11529.788281 -11160.649058  20903.820267    -60.809529                    
V 10  11150.945594  24730.422921   7348.745133      -.010759                    
P 11  15157.907238  12820.449113 -18093.618071   -112.592148                    
V 11 -22061.746899   5228.017140 -14673.671077      -.029744                    
P 12 -11031.329054 -24229.375258   1128.121550    -43.390492                    
V 12   1562.757350  -2157.299073 -31893.077449       .034161                    
P 13  15031.830744   4011.703003  21400.815694    288.599091                    
V 13 -17519.066909  21070.506302   8257.893885      -.011610                    
P 14 -20184.333903  12966.493900 -11088.135496    116.935298                    
V 14   7607.432121 -12303.478030 -27965.248677       .031234                    
P 15  -1973.096783 -19367.331633 -17985.859201   -170.249727                    
V 15  14757.638432 -17673.956103  17543.878368       .041315                    
P 16  -4213.877938  20062.706468  16759.470841   -135.729114                    
V 16  -9491.693236 -19144.299487  20844.318769      -.031250                    
P 17  20143.919048 -11347.295972 -12755.449407    180.017129                    
V 17  -8160.549908  14518.139105 -25793.793907       .008118                    
P 18 -17714.147875  -9267.858045 -17366.916240    111.181918                    
V 18  -6840.927579 -21604.728423  17828.767968       .021352                    
P 19  -2591.071452  20559.640997 -16418.620201    -93.542696                    
V 19 -15372.650336  14456.971567  20846.118026      -.035038                    
P 20  14012.880984  22202.161963   4115.668843     49.030300                    
V 20   -832.796062   6398.108854 -30550.657942      -.001394                    
P 21 -26215.501224  -5439.095626   2958.491179   -110.545988                    
V 21   3624.400183  -2717.659008  30405.464540      -.027121                    
P 22 -15258.859177   4159.308337 -21176.057089    156.663241                    
V 22 -10163.151381 -25429.685299   2218.022487      -.005623                    
P 23   7566.142413  14177.571178  21083.434355    337.185899                    
V 23 -16801.940726  20933.728143  -8372.829811      -.021858                    
P 24  12597.904780  15126.699563 -17916.460974    349.177171                    
V 24 -22738.762810  -2101.877707 -17442.675359       .033698                    
P 25 -17088.067208 -15514.466655  13124.863626    -58.758925                    
V 25  -4882.112954 -16113.890784 -25376.206149      -.022658                    
P 26  10063.542056 -22294.924985 -10367.415555    -76.107538                    
V 26   9504.919452  -8230.294446  28904.505660      -.086944                    
P 27  -5366.764726 -14450.361339 -20992.693596    218.591686                    
V 27  28137.747635   1257.431740  -7571.833479       .036793                    
P 28  15580.778431    484.553535 -21048.905094     10.191923                    
V 28   9675.506421  26087.089106   7312.119306       .019095                    
P 29 -14229.534279  -6330.412455  21587.675965    171.738571                    
V 29  16582.483685 -21607.884693   4647.049790       .028655                    
P 30 -13032.950756   7609.424993  21455.144405    306.238489                    
V 30 -12527.242900 -25291.251597   1344.529922       .032995                    
P 31 -18816.264217   9090.214325  16720.820831     20.405164                    
V 31 -20410.100003  -3743.371637 -21018.711069       .040117                    
P 32   6710.720695  25749.219197  -2669.484748   -156.714900                    
V 32  -3659.706752  -2694.622788 -31179.831048      -.081686                    
EOF
